{
  "type": "FeatureCollection",
  "features": [
    {
      "type": "Feature",
      "properties": {
        "norad_id": 58654,
        "name": "BEIDOU-3 M28 (C50)",
        "group": "beidou",
        "lat": 55.60199458757705,
        "lon": 158.95038885037027,
        "alt_km": 21527.878021805423,
        "timestamp": "2025-12-08T19:31:49.075776+00:00",
        "meta_object_name": "BEIDOU-3 M28 (C50)",
        "meta_object_id": "2023-207A",
        "meta_epoch": "2025-12-06T12:45:22.310208",
        "meta_mean_motion": 1.86229594,
        "meta_eccentricity": 0.00021908,
        "meta_inclination": 55.5792,
        "meta_ra_of_asc_node": 68.8117,
        "meta_arg_of_pericenter": 267.5881,
        "meta_mean_anomaly": 92.402,
        "meta_ephemeris_type": 0,
        "meta_classification_type": "U",
        "meta_norad_cat_id": 58654,
        "meta_element_set_no": 999,
        "meta_rev_at_epoch": 1325,
        "meta_bstar": 0,
        "meta_mean_motion_dot": -4.7e-07,
        "meta_mean_motion_ddot": 0,
        "tle_line1": "1 58654U 23207A   25340.53150822 -.00000047  00000+0  00000+0 0  9992",
        "tle_line2": "2 58654  55.5792  68.8117 0002190 267.5881  92.4020  1.86229594 13257"
      },
      "geometry": {
        "type": "Point",
        "coordinates": [
          158.95038885037027,
          55.60199458757705
        ]
      }
    },
    {
      "type": "Feature",
      "properties": {
        "norad_id": 58655,
        "name": "BEIDOU-3 M26 (C48)",
        "group": "beidou",
        "lat": -36.23331417655777,
        "lon": -81.15918617685979,
        "alt_km": 21523.53248027523,
        "timestamp": "2025-12-08T19:31:49.075786+00:00",
        "meta_object_name": "BEIDOU-3 M26 (C48)",
        "meta_object_id": "2023-207B",
        "meta_epoch": "2025-12-07T09:40:28.837056",
        "meta_mean_motion": 1.86231105,
        "meta_eccentricity": 0.0003615,
        "meta_inclination": 55.5821,
        "meta_ra_of_asc_node": 68.7685,
        "meta_arg_of_pericenter": 253.2983,
        "meta_mean_anomaly": 106.6805,
        "meta_ephemeris_type": 0,
        "meta_classification_type": "U",
        "meta_norad_cat_id": 58655,
        "meta_element_set_no": 999,
        "meta_rev_at_epoch": 1325,
        "meta_bstar": 0,
        "meta_mean_motion_dot": -4.6e-07,
        "meta_mean_motion_ddot": 0,
        "tle_line1": "1 58655U 23207B   25341.40311154 -.00000046  00000+0  00000+0 0  9996",
        "tle_line2": "2 58655  55.5821  68.7685 0003615 253.2983 106.6805  1.86231105 13258"
      },
      "geometry": {
        "type": "Point",
        "coordinates": [
          -81.15918617685979,
          -36.23331417655777
        ]
      }
    },
    {
      "type": "Feature",
      "properties": {
        "norad_id": 61186,
        "name": "BEIDOU-3 M25 (C47)",
        "group": "beidou",
        "lat": -14.018302491748704,
        "lon": -61.36690113870602,
        "alt_km": 21519.8243778274,
        "timestamp": "2025-12-08T19:31:49.075795+00:00",
        "meta_object_name": "BEIDOU-3 M25 (C47)",
        "meta_object_id": "2024-168B",
        "meta_epoch": "2025-12-08T07:21:43.112736",
        "meta_mean_motion": 1.86229841,
        "meta_eccentricity": 0.00054456,
        "meta_inclination": 54.6459,
        "meta_ra_of_asc_node": 308.8729,
        "meta_arg_of_pericenter": 295.6588,
        "meta_mean_anomaly": 67.0803,
        "meta_ephemeris_type": 0,
        "meta_classification_type": "U",
        "meta_norad_cat_id": 61186,
        "meta_element_set_no": 999,
        "meta_rev_at_epoch": 823,
        "meta_bstar": 0,
        "meta_mean_motion_dot": -7.3e-07,
        "meta_mean_motion_ddot": 0,
        "tle_line1": "1 61186U 24168B   25342.30674899 -.00000073  00000+0  00000+0 0  9994",
        "tle_line2": "2 61186  54.6459 308.8729 0005445 295.6588  67.0803  1.86229841  8233"
      },
      "geometry": {
        "type": "Point",
        "coordinates": [
          -61.36690113870602,
          -14.018302491748704
        ]
      }
    },
    {
      "type": "Feature",
      "properties": {
        "norad_id": 61187,
        "name": "BEIDOU-3 M27 (C49)",
        "group": "beidou",
        "lat": 46.24434977743008,
        "lon": 80.99604194445142,
        "alt_km": 21527.85354750208,
        "timestamp": "2025-12-08T19:31:49.075805+00:00",
        "meta_object_name": "BEIDOU-3 M27 (C49)",
        "meta_object_id": "2024-168C",
        "meta_epoch": "2025-12-08T04:47:20.536800",
        "meta_mean_motion": 1.86229984,
        "meta_eccentricity": 0.00023097,
        "meta_inclination": 54.6414,
        "meta_ra_of_asc_node": 308.8603,
        "meta_arg_of_pericenter": 333.3276,
        "meta_mean_anomaly": 92.4757,
        "meta_ephemeris_type": 0,
        "meta_classification_type": "U",
        "meta_norad_cat_id": 61187,
        "meta_element_set_no": 999,
        "meta_rev_at_epoch": 570,
        "meta_bstar": 0,
        "meta_mean_motion_dot": -7.3e-07,
        "meta_mean_motion_ddot": 0,
        "tle_line1": "1 61187U 24168C   25342.19954325 -.00000073  00000+0  00000+0 0  9997",
        "tle_line2": "2 61187  54.6414 308.8603 0002309 333.3276  92.4757  1.86229984  5703"
      },
      "geometry": {
        "type": "Point",
        "coordinates": [
          80.99604194445142,
          46.24434977743008
        ]
      }
    }
  ]
}